     2.11           N: GPS NAV DATA                         RINEX VERSION / TYPE
teqc  2015Nov6      root                20170306 03:43:28UTCPGM / RUN BY / DATE
Linux 2.4.21-27.ELsmp|Opteron|gcc|Linux x86_64|=+           COMMENT
teqc  2015Nov6      CORS-ADM Account    20160102 00:46:30UTCCOMMENT
Solaris x86 5.10|AMD64|cc SC5.8 -xarch=amd64|=+|=+          COMMENT
     2              NAVIGATION DATA                         COMMENT
CCRINEXN V1.6.0 UX  CDDIS               01-JAN-16 19:41     COMMENT
IGS BROADCAST EPHEMERIS FILE                                COMMENT
    1.1180D-08 -7.4510D-09 -5.9600D-08  1.1920D-07          ION ALPHA
    1.1670D+05 -2.2940D+05 -1.3110D+05  1.0490D+06          ION BETA
   -2.793967723850D-09-6.217248937900D-15    61440       86 DELTA-UTC: A0,A1,T,W
                                                            END OF HEADER
17 16  1  1 16  0  0.0-1.979437656700D-04-7.958078640510D-13 0.000000000000D+00
    2.700000000000D+01-6.531250000000D+00 4.335180577670D-09 9.946802540940D-01
   -3.688037395480D-07 1.087990228550D-02 6.129965186120D-06 5.153617713930D+03
    4.896000000000D+05-1.918524503710D-07-5.381032436000D-01 6.332993507380D-08
    9.749906041350D-01 2.682187500000D+02-1.974199667860D+00-8.237128823760D-09
    1.717928701480D-10 1.000000000000D+00 1.877000000000D+03 0.000000000000D+00
    2.000000000000D+00 0.000000000000D+00-1.071020960810D-08 2.700000000000D+01
    4.842300000000D+05 4.000000000000D+00
19 16  1  1 16  0  0.0-5.241660401230D-04-2.273736754430D-13 0.000000000000D+00
    8.000000000000D+01-1.025000000000D+01 4.311965324950D-09-1.507237106410D+00
   -5.215406417850D-07 1.128524320670D-02 5.351379513740D-06 5.155186841960D+03
    4.896000000000D+05 1.508742570880D-07-4.890171384410D-01-6.705522537230D-08
    9.720892835580D-01 2.741875000000D+02 6.682963285620D-01-7.994261564510D-09
    3.407284784230D-10 1.000000000000D+00 1.877000000000D+03 0.000000000000D+00
    2.000000000000D+00 0.000000000000D+00-1.490116119380D-08 8.000000000000D+01
    4.824300000000D+05 4.000000000000D+00
20 16  1  1 16  0  0.0 3.826124593620D-04 2.728484105320D-12 0.000000000000D+00
    6.400000000000D+01-2.812500000000D+00 5.362366221220D-09 2.593115936890D-01
   -7.450580596920D-09 5.008510896010D-03 9.823590517040D-06 5.153680248260D+03
    4.896000000000D+05-5.960464477540D-08 1.431216761520D+00 1.862645149230D-08
    9.258517973520D-01 1.726875000000D+02 1.304925571660D+00-8.425350949690D-09
   -2.464388365950D-11 1.000000000000D+00 1.877000000000D+03 0.000000000000D+00
    2.000000000000D+00 0.000000000000D+00-8.381903171540D-09 6.400000000000D+01
    4.824180000000D+05 4.000000000000D+00
21 16  1  1 16  0  0.0-5.028429441150D-04-2.160049916710D-12 0.000000000000D+00
    2.700000000000D+01-6.493750000000D+01 5.134856744540D-09-2.849727993220D+00
   -3.559514880180D-06 2.286470110990D-02 6.655231118200D-06 5.153697753910D+03
    4.896000000000D+05 4.060566425320D-07 4.407866882150D-01-4.656612873080D-08
    9.355525051510D-01 2.319375000000D+02-1.847264419530D+00-8.072479108300D-09
    3.607293115380D-11 1.000000000000D+00 1.877000000000D+03 0.000000000000D+00
    2.000000000000D+00 0.000000000000D+00-1.164153218270D-08 2.700000000000D+01
    4.824180000000D+05 4.000000000000D+00
22 16  1  1 16  0  0.0 4.158401861790D-04-3.524291969370D-12 0.000000000000D+00
    4.700000000000D+01-3.562500000000D+00 5.448084077430D-09 1.804750310000D+00
   -2.160668373110D-07 7.507309084760D-03 1.034140586850D-05 5.155111951830D+03
    4.896000000000D+05-1.378357410430D-07 1.484057462020D+00-1.806765794750D-07
    9.224420981130D-01 1.611250000000D+02-2.027922276820D+00-8.393563911340D-09
    5.500229106620D-11 1.000000000000D+00 1.877000000000D+03 0.000000000000D+00
    2.000000000000D+00 0.000000000000D+00-1.769512891770D-08 4.700000000000D+01
    4.887180000000D+05 4.000000000000D+00
23 16  1  1 16  0  0.0-1.527392305430D-04-1.932676241270D-12 0.000000000000D+00
    9.500000000000D+01 4.606250000000D+01 5.052353307940D-09-2.668940853470D-01
    2.374872565270D-06 1.039629057050D-02 6.748363375660D-06 5.153748466490D+03
    4.896000000000D+05 2.421438694000D-08 2.558839327410D+00 1.229345798490D-07
    9.468693541440D-01 2.397187500000D+02-2.617893610070D+00-8.471067139660D-09
   -5.035924052160D-11 1.000000000000D+00 1.877000000000D+03 0.000000000000D+00
    2.000000000000D+00 0.000000000000D+00-2.002343535420D-08 9.500000000000D+01
    4.824000000000D+05 4.000000000000D+00
24 16  1  1 16  0  0.0-1.010997220870D-05-5.684341886080D-13 0.000000000000D+00
    7.000000000000D+01-1.437500000000D+00 4.791628161980D-09-8.790274761880D-01
   -1.471489667890D-07 4.023142624650D-03 6.364658474920D-06 5.153638973240D+03
    4.896000000000D+05 8.381903171540D-08-2.698401483960D+00-1.490116119380D-08
    9.514067320810D-01 2.525000000000D+02 3.238419385970D-01-8.274273228120D-09
   -3.210848030420D-10 0.000000000000D+00 1.877000000000D+03 0.000000000000D+00
    2.000000000000D+00 0.000000000000D+00 2.793967723850D-09 7.000000000000D+01
    4.824000000000D+05 4.000000000000D+00
25 16  1  1 16  0  0.0-9.235553443430D-05-6.252776074690D-12 0.000000000000D+00
    1.600000000000D+01 1.371875000000D+01 3.836588380730D-09-2.864683537860D+00
    6.966292858120D-07 4.889107891360D-03 8.979812264440D-06 5.153582923890D+03
    4.896000000000D+05 0.000000000000D+00-1.629849749260D+00-5.587935447690D-09
    9.784360161300D-01 2.153125000000D+02 6.958643321940D-01-7.734250734020D-09
    7.750322832060D-11 1.000000000000D+00 1.877000000000D+03 0.000000000000D+00
    2.000000000000D+00 0.000000000000D+00 5.587935447690D-09 1.600000000000D+01
    4.824180000000D+05 4.000000000000D+00
26 16  1  1 16  0  0.0-1.919474452730D-04-1.705302565820D-11 0.000000000000D+00
    9.500000000000D+01 7.031250000000D+00 4.363753196410D-09 3.046414186620D+00
    4.302710294720D-07 6.297155050560D-04 8.435919880870D-06 5.153692935940D+03
    4.896000000000D+05 2.048909664150D-08-1.636254166150D+00 5.587935447690D-09
    9.604787069480D-01 2.159687500000D+02-2.772758634350D-01-8.073550581500D-09
    4.143029716670D-11 1.000000000000D+00 1.877000000000D+03 0.000000000000D+00
    2.000000000000D+00 0.000000000000D+00 7.450580596920D-09 9.500000000000D+01
    4.824180000000D+05 4.000000000000D+00
27 16  1  1 16  0  0.0 4.952680319550D-05 3.410605131650D-12 0.000000000000D+00
    4.400000000000D+01-3.812500000000D+00 4.424470011220D-09 9.870797363590D-01
   -2.477318048480D-07 2.930827555250D-03 5.986541509630D-06 5.153713928220D+03
    4.896000000000D+05 5.029141902920D-08-5.871524115400D-01-5.587935447690D-09
    9.698989221490D-01 2.686562500000D+02 2.320737136130D-01-8.149982336620D-09
    2.342954736330D-10 1.000000000000D+00 1.877000000000D+03 0.000000000000D+00
    2.000000000000D+00 0.000000000000D+00 1.862645149230D-09 4.400000000000D+01
    4.877160000000D+05 4.000000000000D+00
28 16  1  1 16  0  0.0 4.923488013450D-04 2.614797267600D-12 0.000000000000D+00
    8.500000000000D+01 1.562500000000D+00 3.655152251760D-09 1.739507023670D+00
   -1.937150955200D-07 2.003587549550D-02 7.834285497670D-06 5.153705518720D+03
    4.896000000000D+05 1.396983861920D-07-1.556781081520D+00-4.786998033520D-07
    9.892719410440D-01 2.420937500000D+02-1.633959896600D+00-7.620674574540D-09
    1.039329006510D-10 1.000000000000D+00 1.877000000000D+03 0.000000000000D+00
    2.900000000000D+00 0.000000000000D+00-1.117587089540D-08 8.500000000000D+01
    4.824000000000D+05 4.000000000000D+00
29 16  1  1 16  0  0.0 6.503248587250D-04 1.250555214940D-12 0.000000000000D+00
    2.700000000000D+01-3.125000000000D+00 4.281964075280D-09-2.706124958500D+00
   -9.499490261080D-08 9.503272594880D-04 5.597248673440D-06 5.153635017400D+03
    4.896000000000D+05 1.490116119380D-08-5.285275421510D-01 1.117587089540D-08
    9.759146256180D-01 2.781250000000D+02-6.020927871930D-01-8.052835432920D-09
    2.825117677490D-10 1.000000000000D+00 1.877000000000D+03 0.000000000000D+00
    2.000000000000D+00 0.000000000000D+00-1.024454832080D-08 2.700000000000D+01
    4.824180000000D+05 4.000000000000D+00
30 16  1  1 16  0  0.0 7.877917960290D-05 5.002220859750D-12 0.000000000000D+00
    3.800000000000D+01 2.437500000000D+00 4.652693803370D-09-1.861472674910D+00
    2.421438694000D-08 1.645742100660D-03 6.327405571940D-06 5.153656518940D+03
    4.896000000000D+05-3.352761268620D-08-2.607564043530D+00-2.048909664150D-08
    9.540400621580D-01 2.543437500000D+02 3.097710231420D+00-8.192841264720D-09
   -2.342954736330D-10 1.000000000000D+00 1.877000000000D+03 0.000000000000D+00
    2.000000000000D+00 0.000000000000D+00 3.259629011150D-09 3.800000000000D+01
    4.824000000000D+05 4.000000000000D+00
31 16  1  1 16  0  0.0 2.888557501140D-04-1.591615728100D-12 0.000000000000D+00
    4.200000000000D+01-1.187500000000D+00 4.353038464380D-09-1.870314330880D+00
   -6.519258022310D-08 8.347610477360D-03 6.882473826410D-06 5.153666229250D+03
    4.896000000000D+05-1.136213541030D-07-2.645089858430D+00-3.352761268620D-08
    9.731223319370D-01 2.573125000000D+02-4.654825857440D-01-8.086051102200D-09
   -2.378670509750D-10 1.000000000000D+00 1.877000000000D+03 0.000000000000D+00
    2.000000000000D+00 0.000000000000D+00-1.350417733190D-08 4.200000000000D+01
    4.824180000000D+05 4.000000000000D+00
32 16  1  1 16  0  0.0 6.665708497170D-05 1.227817847390D-11 0.000000000000D+00
    9.000000000000D+01 5.312500000000D-01 4.907347267850D-09-1.452605447470D+00
    2.048909664150D-08 1.136844488790D-02 9.836629033090D-06 5.153639289860D+03
    4.896000000000D+05 8.009374141690D-08 1.590205766500D+00-1.639127731320D-07
    9.464029466020D-01 1.825312500000D+02 2.046057106720D-01-8.127124241630D-09
    2.075086435680D-10 1.000000000000D+00 1.877000000000D+03 0.000000000000D+00
    2.000000000000D+00 0.000000000000D+00-3.259629011150D-09 9.000000000000D+01
    4.824000000000D+05 4.000000000000D+00
